ZHONGXING-12            
1 39017U 12067A   26117.19191774 -.00000217  00000+0  00000+0 0  9991
2 39017   0.0375  76.2144 0003188 307.2521 348.2987  1.00271036 48992
EUTELSAT 70B            
1 39020U 12069A   26117.17266972 -.00000053  00000+0  00000+0 0  9996
2 39020   0.0705  18.8077 0005079  14.1996 314.8016  1.00271554 48998
YAMAL 402               
1 39022U 12070A   26117.07528152  .00000076  00000+0  00000+0 0  9994
2 39022   1.1353  84.7409 0003905 306.0833 266.2417  1.00271558 48888
SKYNET 5D               
1 39034U 12075A   26117.25322468  .00000089  00000+0  00000+0 0  9998
2 39034   0.0715   7.6023 0003682  27.6043 323.9465  1.00272875 48649
MEXSAT 3                
1 39035U 12075B   26117.49103234 -.00000034  00000+0  00000+0 0  9994
2 39035   0.0174 193.7888 0002165 225.1764 218.4832  1.00269057  6542
TDRS 11                 
1 39070U 13004A   26117.55497088  .00000072  00000+0  00000+0 0  9997
2 39070   3.4471  30.3705 0005404   1.5198 209.2548  1.00264844 46183
AMAZONAS 3              
1 39078U 13006A   26117.44209058 -.00000292  00000+0  00000+0 0  9998
2 39078   0.0252 157.1766 0001469 227.7788 288.6339  1.00270725 44407
AZERSPACE 1             
1 39079U 13006B   26117.20044858  .00000122  00000+0  00000+0 0  9999
2 39079   0.0047 205.5390 0002240 225.4759 262.3335  1.00282465 48292
SBIRS GEO-2 (USA 241)   
1 39120U 13011A   26117.24489122 -.00000294  00000+0  00000+0 0  9994
2 39120   4.3803  52.4480 0002230 340.2340 220.9177  1.00271530 48022
EUTELSAT 117 WEST A     
1 39122U 13012A   26117.46420465 -.00000022  00000+0  00000+0 0  9995
2 39122   0.0178 312.9537 0002573  71.9387 240.8716  1.00271020 47920
ANIK G1                 
1 39127U 13014A   26117.46310086  .00000000  00000+0  00000+0 0  9994
2 39127   0.0241 101.9412 0002201 278.7148 254.2086  1.00269484 47744
ZHONGXING-11            
1 39157U 13020A   26117.65115517 -.00000299  00000+0  00000+0 0  9998
2 39157   0.0190 311.6008 0001773  97.7616 138.5833  1.00273592 47393
EUTELSAT 7B             
1 39163U 13022A   26117.21711356  .00000038  00000+0  00000+0 0  9992
2 39163   0.0761  22.5787 0005904 356.3782 281.3961  1.00271744 47435
WGS F5 (USA 243)        
1 39168U 13024A   26117.07405917 -.00000295  00000+0  00000+0 0  9992
2 39168   0.0097 255.6612 0000094  16.6835 276.8890  1.00269803 46665
SES-6                   
1 39172U 13026A   26117.24489122 -.00000271  00000+0  00000+0 0  9992
2 39172   0.0352 292.8499 0002138 119.0786 210.9623  1.00269844 47214
IRNSS-1A                
1 39199U 13034A   26116.93262759  .00000076  00000+0  00000+0 0  9992
2 39199  35.6121  64.6024 0017019 187.3154 353.7046  1.00272532 46853
MUOS-2                  
1 39206U 13036A   26117.50685041 -.00000020  00000+0  00000+0 0  9990
2 39206   4.8954  45.4381 0050528 180.5824 343.8712  1.00271082 46688
