[{"OBJECT_NAME":"ZHONGXING-12","OBJECT_ID":"2012-067A","EPOCH":"2026-04-27T04:36:21.692736","MEAN_MOTION":1.00271036,"ECCENTRICITY":0.00031881,"INCLINATION":0.0375,"RA_OF_ASC_NODE":76.2144,"ARG_OF_PERICENTER":307.2521,"MEAN_ANOMALY":348.2987,"EPHEMERIS_TYPE":0,"CLASSIFICATION_TYPE":"U","NORAD_CAT_ID":39017,"ELEMENT_SET_NO":999,"REV_AT_EPOCH":4899,"BSTAR":0,"MEAN_MOTION_DOT":-2.17e-6,"MEAN_MOTION_DDOT":0},{"OBJECT_NAME":"EUTELSAT 70B","OBJECT_ID":"2012-069A","EPOCH":"2026-04-27T04:08:38.663808","MEAN_MOTION":1.00271554,"ECCENTRICITY":0.00050795,"INCLINATION":0.0705,"RA_OF_ASC_NODE":18.8077,"ARG_OF_PERICENTER":14.1996,"MEAN_ANOMALY":314.8016,"EPHEMERIS_TYPE":0,"CLASSIFICATION_TYPE":"U","NORAD_CAT_ID":39020,"ELEMENT_SET_NO":999,"REV_AT_EPOCH":4899,"BSTAR":0,"MEAN_MOTION_DOT":-5.3e-7,"MEAN_MOTION_DDOT":0},{"OBJECT_NAME":"YAMAL 402","OBJECT_ID":"2012-070A","EPOCH":"2026-04-27T01:48:24.323328","MEAN_MOTION":1.00271558,"ECCENTRICITY":0.00039051,"INCLINATION":1.1353,"RA_OF_ASC_NODE":84.7409,"ARG_OF_PERICENTER":306.0833,"MEAN_ANOMALY":266.2417,"EPHEMERIS_TYPE":0,"CLASSIFICATION_TYPE":"U","NORAD_CAT_ID":39022,"ELEMENT_SET_NO":999,"REV_AT_EPOCH":4888,"BSTAR":0,"MEAN_MOTION_DOT":7.6e-7,"MEAN_MOTION_DDOT":0},{"OBJECT_NAME":"SKYNET 5D","OBJECT_ID":"2012-075A","EPOCH":"2026-04-27T06:04:38.612352","MEAN_MOTION":1.00272875,"ECCENTRICITY":0.0003682,"INCLINATION":0.0715,"RA_OF_ASC_NODE":7.6023,"ARG_OF_PERICENTER":27.6043,"MEAN_ANOMALY":323.9465,"EPHEMERIS_TYPE":0,"CLASSIFICATION_TYPE":"U","NORAD_CAT_ID":39034,"ELEMENT_SET_NO":999,"REV_AT_EPOCH":4864,"BSTAR":0,"MEAN_MOTION_DOT":8.9e-7,"MEAN_MOTION_DDOT":0},{"OBJECT_NAME":"MEXSAT 3","OBJECT_ID":"2012-075B","EPOCH":"2026-04-27T11:47:05.194176","MEAN_MOTION":1.00269057,"ECCENTRICITY":0.0002165,"INCLINATION":0.0174,"RA_OF_ASC_NODE":193.7888,"ARG_OF_PERICENTER":225.1764,"MEAN_ANOMALY":218.4832,"EPHEMERIS_TYPE":0,"CLASSIFICATION_TYPE":"U","NORAD_CAT_ID":39035,"ELEMENT_SET_NO":999,"REV_AT_EPOCH":654,"BSTAR":0,"MEAN_MOTION_DOT":-3.4e-7,"MEAN_MOTION_DDOT":0},{"OBJECT_NAME":"TDRS 11","OBJECT_ID":"2013-004A","EPOCH":"2026-04-27T13:19:09.484032","MEAN_MOTION":1.00264844,"ECCENTRICITY":0.0005404,"INCLINATION":3.4471,"RA_OF_ASC_NODE":30.3705,"ARG_OF_PERICENTER":1.5198,"MEAN_ANOMALY":209.2548,"EPHEMERIS_TYPE":0,"CLASSIFICATION_TYPE":"U","NORAD_CAT_ID":39070,"ELEMENT_SET_NO":999,"REV_AT_EPOCH":4618,"BSTAR":0,"MEAN_MOTION_DOT":7.2e-7,"MEAN_MOTION_DDOT":0},{"OBJECT_NAME":"AMAZONAS 3","OBJECT_ID":"2013-006A","EPOCH":"2026-04-27T10:36:36.626112","MEAN_MOTION":1.00270725,"ECCENTRICITY":0.0001469,"INCLINATION":0.0252,"RA_OF_ASC_NODE":157.1766,"ARG_OF_PERICENTER":227.7788,"MEAN_ANOMALY":288.6339,"EPHEMERIS_TYPE":0,"CLASSIFICATION_TYPE":"U","NORAD_CAT_ID":39078,"ELEMENT_SET_NO":999,"REV_AT_EPOCH":4440,"BSTAR":0,"MEAN_MOTION_DOT":-2.92e-6,"MEAN_MOTION_DDOT":0},{"OBJECT_NAME":"AZERSPACE 1","OBJECT_ID":"2013-006B","EPOCH":"2026-04-27T04:48:38.757312","MEAN_MOTION":1.00282465,"ECCENTRICITY":0.00022407,"INCLINATION":0.0047,"RA_OF_ASC_NODE":205.539,"ARG_OF_PERICENTER":225.4759,"MEAN_ANOMALY":262.3335,"EPHEMERIS_TYPE":0,"CLASSIFICATION_TYPE":"U","NORAD_CAT_ID":39079,"ELEMENT_SET_NO":999,"REV_AT_EPOCH":4829,"BSTAR":0,"MEAN_MOTION_DOT":1.22e-6,"MEAN_MOTION_DDOT":0},{"OBJECT_NAME":"SBIRS GEO-2 (USA 241)","OBJECT_ID":"2013-011A","EPOCH":"2026-04-27T05:52:38.601408","MEAN_MOTION":1.0027153,"ECCENTRICITY":0.000223,"INCLINATION":4.3803,"RA_OF_ASC_NODE":52.448,"ARG_OF_PERICENTER":340.234,"MEAN_ANOMALY":220.9177,"EPHEMERIS_TYPE":0,"CLASSIFICATION_TYPE":"U","NORAD_CAT_ID":39120,"ELEMENT_SET_NO":999,"REV_AT_EPOCH":4802,"BSTAR":0,"MEAN_MOTION_DOT":-2.94e-6,"MEAN_MOTION_DDOT":0},{"OBJECT_NAME":"EUTELSAT 117 WEST A","OBJECT_ID":"2013-012A","EPOCH":"2026-04-27T11:08:27.281760","MEAN_MOTION":1.0027102,"ECCENTRICITY":0.0002573,"INCLINATION":0.0178,"RA_OF_ASC_NODE":312.9537,"ARG_OF_PERICENTER":71.9387,"MEAN_ANOMALY":240.8716,"EPHEMERIS_TYPE":0,"CLASSIFICATION_TYPE":"U","NORAD_CAT_ID":39122,"ELEMENT_SET_NO":999,"REV_AT_EPOCH":4792,"BSTAR":0,"MEAN_MOTION_DOT":-2.2e-7,"MEAN_MOTION_DDOT":0},{"OBJECT_NAME":"ANIK G1","OBJECT_ID":"2013-014A","EPOCH":"2026-04-27T11:06:51.914304","MEAN_MOTION":1.00269484,"ECCENTRICITY":0.0002201,"INCLINATION":0.0241,"RA_OF_ASC_NODE":101.9412,"ARG_OF_PERICENTER":278.7148,"MEAN_ANOMALY":254.2086,"EPHEMERIS_TYPE":0,"CLASSIFICATION_TYPE":"U","NORAD_CAT_ID":39127,"ELEMENT_SET_NO":999,"REV_AT_EPOCH":4774,"BSTAR":0,"MEAN_MOTION_DOT":0,"MEAN_MOTION_DDOT":0},{"OBJECT_NAME":"ZHONGXING-11","OBJECT_ID":"2013-020A","EPOCH":"2026-04-27T15:37:39.806688","MEAN_MOTION":1.00273592,"ECCENTRICITY":0.0001773,"INCLINATION":0.019,"RA_OF_ASC_NODE":311.6008,"ARG_OF_PERICENTER":97.7616,"MEAN_ANOMALY":138.5833,"EPHEMERIS_TYPE":0,"CLASSIFICATION_TYPE":"U","NORAD_CAT_ID":39157,"ELEMENT_SET_NO":999,"REV_AT_EPOCH":4739,"BSTAR":0,"MEAN_MOTION_DOT":-2.99e-6,"MEAN_MOTION_DDOT":0},{"OBJECT_NAME":"EUTELSAT 7B","OBJECT_ID":"2013-022A","EPOCH":"2026-04-27T05:12:38.611584","MEAN_MOTION":1.00271744,"ECCENTRICITY":0.00059041,"INCLINATION":0.0761,"RA_OF_ASC_NODE":22.5787,"ARG_OF_PERICENTER":356.3782,"MEAN_ANOMALY":281.3961,"EPHEMERIS_TYPE":0,"CLASSIFICATION_TYPE":"U","NORAD_CAT_ID":39163,"ELEMENT_SET_NO":999,"REV_AT_EPOCH":4743,"BSTAR":0,"MEAN_MOTION_DOT":3.8e-7,"MEAN_MOTION_DDOT":0},{"OBJECT_NAME":"WGS F5 (USA 243)","OBJECT_ID":"2013-024A","EPOCH":"2026-04-27T01:46:38.712288","MEAN_MOTION":1.00269803,"ECCENTRICITY":9.4e-6,"INCLINATION":0.0097,"RA_OF_ASC_NODE":255.6612,"ARG_OF_PERICENTER":16.6835,"MEAN_ANOMALY":276.889,"EPHEMERIS_TYPE":0,"CLASSIFICATION_TYPE":"U","NORAD_CAT_ID":39168,"ELEMENT_SET_NO":999,"REV_AT_EPOCH":4666,"BSTAR":0,"MEAN_MOTION_DOT":-2.95e-6,"MEAN_MOTION_DDOT":0},{"OBJECT_NAME":"SES-6","OBJECT_ID":"2013-026A","EPOCH":"2026-04-27T05:52:38.601408","MEAN_MOTION":1.00269844,"ECCENTRICITY":0.0002138,"INCLINATION":0.0352,"RA_OF_ASC_NODE":292.8499,"ARG_OF_PERICENTER":119.0786,"MEAN_ANOMALY":210.9623,"EPHEMERIS_TYPE":0,"CLASSIFICATION_TYPE":"U","NORAD_CAT_ID":39172,"ELEMENT_SET_NO":999,"REV_AT_EPOCH":4721,"BSTAR":0,"MEAN_MOTION_DOT":-2.71e-6,"MEAN_MOTION_DDOT":0},{"OBJECT_NAME":"IRNSS-1A","OBJECT_ID":"2013-034A","EPOCH":"2026-04-26T22:22:59.023776","MEAN_MOTION":1.00272532,"ECCENTRICITY":0.0017019,"INCLINATION":35.6121,"RA_OF_ASC_NODE":64.6024,"ARG_OF_PERICENTER":187.3154,"MEAN_ANOMALY":353.7046,"EPHEMERIS_TYPE":0,"CLASSIFICATION_TYPE":"U","NORAD_CAT_ID":39199,"ELEMENT_SET_NO":999,"REV_AT_EPOCH":4685,"BSTAR":0,"MEAN_MOTION_DOT":7.6e-7,"MEAN_MOTION_DDOT":0},{"OBJECT_NAME":"MUOS-2","OBJECT_ID":"2013-036A","EPOCH":"2026-04-27T12:09:51.875424","MEAN_MOTION":1.00271082,"ECCENTRICITY":0.0050528,"INCLINATION":4.8954,"RA_OF_ASC_NODE":45.4381,"ARG_OF_PERICENTER":180.5824,"MEAN_ANOMALY":343.8712,"EPHEMERIS_TYPE":0,"CLASSIFICATION_TYPE":"U","NORAD_CAT_ID":39206,"ELEMENT_SET_NO":999,"REV_AT_EPOCH":4668,"BSTAR":0,"MEAN_MOTION_DOT":-2.0e-7,"MEAN_MOTION_DDOT":0}]
